[{"OBJECT_NAME":"STARLINK-32012","OBJECT_ID":"2024-111M","EPOCH":"2026-03-09T06:50:33.615456","MEAN_MOTION":15.30185615,"ECCENTRICITY":0.00012702,"INCLINATION":53.1606,"RA_OF_ASC_NODE":77.3493,"ARG_OF_PERICENTER":91.1019,"MEAN_ANOMALY":269.0127,"EPHEMERIS_TYPE":0,"CLASSIFICATION_TYPE":"U","NORAD_CAT_ID":60027,"ELEMENT_SET_NO":999,"REV_AT_EPOCH":9897,"BSTAR":-1.37943e-5,"MEAN_MOTION_DOT":-7.67e-6,"MEAN_MOTION_DDOT":0},{"OBJECT_NAME":"OBJECT K","OBJECT_ID":"2024-205K","EPOCH":"2026-03-09T22:22:01.331040","MEAN_MOTION":15.27932792,"ECCENTRICITY":0.00106729,"INCLINATION":97.417,"RA_OF_ASC_NODE":146.2172,"ARG_OF_PERICENTER":37.4736,"MEAN_ANOMALY":322.7246,"EPHEMERIS_TYPE":0,"CLASSIFICATION_TYPE":"U","NORAD_CAT_ID":61903,"ELEMENT_SET_NO":999,"REV_AT_EPOCH":7347,"BSTAR":0.00067315144,"MEAN_MOTION_DOT":0.00018331,"MEAN_MOTION_DDOT":0}]
